STARLINK-4649           
1 53831U 22114P   24278.85750483  .00000497  00000+0  49338-4 0  9993
2 53831  53.2159 122.2081 0001209  92.1668 267.9463 15.08839433114206
STARLINK-4747           
1 53832U 22114Q   24278.96787391  .00001514  00000+0  11315-3 0  9998
2 53832  53.2162 121.4756 0001393  99.5127 260.6023 15.08844787113687
STARLINK-4771           
1 53833U 22114R   24278.84741041  .00000482  00000+0  48363-4 0  9995
2 53833  53.2146 122.1460 0001397  91.2785 268.8367 15.08838198114202
STARLINK-4737           
1 53834U 22114S   24278.96051047 -.00004120  00000+0 -24081-3 0  9994
2 53834  53.2147 121.4307 0001019 109.5945 250.5157 15.08856632113687
STARLINK-4783           
1 53835U 22114T   24278.83908076  .00000776  00000+0  66848-4 0  9993
2 53835  53.2145 122.0961 0001376  97.2120 262.9028 15.08840903114200
STARLINK-4778           
1 53836U 22114U   24279.27429044  .00000805  00000+0  68687-4 0  9992
2 53836  53.2172 110.5525 0001482 103.4842 256.6315 15.08843259113865
STARLINK-4776           
1 53837U 22114V   24278.83171472  .00002092  00000+0  14952-3 0  9998
2 53837  53.2136 122.0519 0001340  84.8311 275.2834 15.08837407114203
STARLINK-4773           
1 53838U 22114W   24279.27059136  .00004263  00000+0  28568-3 0  9990
2 53838  53.2171 110.5352 0001600 101.3742 258.7430 15.08854859113861
STARLINK-4784           
1 53839U 22114X   24279.27797176  .00001299  00000+0  99675-4 0  9998
2 53839  53.2158 110.5838 0001410  95.8158 264.2995 15.08842172113866
STARLINK-4766           
1 53840U 22114Y   24279.26052393  .00000667  00000+0  60017-4 0  9990
2 53840  53.2163 110.4781 0001364  90.2278 269.8870 15.08833220113867
STARLINK-4750           
1 53841U 22114Z   24278.80324188 -.00002019  00000+0 -10875-3 0  9995
2 53841  53.2158 112.5970 0001451  90.7465 269.3693 15.08848770114332
STARLINK-4754           
1 53842U 22114AA  24278.85474248  .00000460  00000+0  46959-4 0  9993
2 53842  53.2161 112.2113 0001240  95.8407 264.2727 15.08843904114348
STARLINK-4769           
1 53843U 22114AB  24279.26323494  .00000985  00000+0  79945-4 0  9999
2 53843  53.2156 110.4914 0001341  84.3000 275.8145 15.08842241113867
STARLINK-4745           
1 53844U 22114AC  24279.50977464  .00002996  00000+0  20624-3 0  9992
2 53844  53.2168 109.1910 0001399  93.7359 266.3793 15.08840183113908
STARLINK-4753           
1 53845U 22114AD  24278.92467067  .00001148  00000+0  90223-4 0  9992
2 53845  53.2171 111.9527 0001578  90.3900 269.7273 15.08842273113814
STARLINK-4746           
1 53846U 22114AE  24278.97248040  .00001738  00000+0  12726-3 0  9992
2 53846  53.2157 111.5227 0001034  87.5683 272.5428 15.08838952113829
STARLINK-4777           
1 53847U 22114AF  24278.85105954  .00000995  00000+0  80627-4 0  9996
2 53847  53.2166 112.1849 0001772  86.6233 273.4962 15.08837778114343
STARLINK-4780           
1 53848U 22114AG  24279.23006915  .00001897  00000+0  13722-3 0  9990
2 53848  53.2163 110.2874 0001206  91.8693 268.2437 15.08845121113864
STARLINK-4770           
1 53849U 22114AH  24279.24112974  .00001779  00000+0  12985-3 0  9994
2 53849  53.2160 110.3571 0001474 101.9227 258.1931 15.08841297113867
STARLINK-4767           
1 53850U 22114AJ  24278.82157860  .00000349  00000+0  40028-4 0  9994
2 53850  53.2161 111.9982 0001573 104.9000 255.2167 15.08839624114349
STARLINK-4755           
1 53851U 22114AK  24279.49871234  .00001790  00000+0  13047-3 0  9998
2 53851  53.2155 109.1235 0001342  92.5573 267.5573 15.08847370113909
STARLINK-4797           
1 53852U 22114AL  24279.51207715  .00002402  00000+0  16894-3 0  9993
2 53852  53.2166 104.2187 0001508  87.2218 272.8947 15.08840614113970
STARLINK-4794           
1 53853U 22114AM  24278.82894805 -.00002473  00000+0 -13732-3 0  9997
2 53853  53.2169 112.0473 0001285  91.0332 269.0808 15.08849878114348
STARLINK-4800           
1 53854U 22114AN  24279.20897513  .00001360  00000+0  10351-3 0  9996
2 53854  53.2168 100.8834 0001207  99.3311 260.7818 15.08837488113999
STARLINK-4703           
1 53855U 22114AP  24278.83359309  .00001807  00000+0  13160-3 0  9998
2 53855  53.2149 112.0744 0001150  88.0123 272.1001 15.08839532114340
STARLINK-4795           
1 53856U 22114AQ  24278.92927585  .00000978  00000+0  79554-4 0  9994
2 53856  53.2177 101.9779 0001606  97.6521 262.4654 15.08840086113959
STARLINK-4809           
1 53857U 22114AR  24278.81789467  .00001544  00000+0  11507-3 0  9991
2 53857  53.2173 111.9802 0001413 100.9667 259.1484 15.08834346114349
STARLINK-4798           
1 53858U 22114AS  24279.20528860  .00000935  00000+0  76846-4 0  9995
2 53858  53.2157 100.8581 0001318  79.4261 280.6879 15.08840372113990
STARLINK-4790           
1 53859U 22114AT  24279.22131948  .00002605  00000+0  18168-3 0  9993
2 53859  53.2161 105.2484 0001303 107.4128 252.7007 15.08846228113938
STARLINK-4799           
1 53860U 22114AU  24278.80048118 -.00000158  00000+0  81787-5 0  9995
2 53860  53.2162 102.5969 0001381  96.3653 263.7497 15.08837864114239
