OBJECT_NAME,OBJECT_ID,EPOCH,MEAN_MOTION,ECCENTRICITY,INCLINATION,RA_OF_ASC_NODE,ARG_OF_PERICENTER,MEAN_ANOMALY,EPHEMERIS_TYPE,CLASSIFICATION_TYPE,NORAD_CAT_ID,ELEMENT_SET_NO,REV_AT_EPOCH,BSTAR,MEAN_MOTION_DOT,MEAN_MOTION_DDOT
STARLINK-4649,2022-114P,2024-10-04T20:34:48.417312,15.08839433,.0001209,53.2159,122.2081,92.1668,267.9463,0,U,53831,999,11420,.49338E-4,.497E-5,0
STARLINK-4747,2022-114Q,2024-10-04T23:13:44.305824,15.08844787,.0001393,53.2162,121.4756,99.5127,260.6023,0,U,53832,999,11368,.11315E-3,.1514E-4,0
STARLINK-4771,2022-114R,2024-10-04T20:20:16.259424,15.08838198,.0001397,53.2146,122.1460,91.2785,268.8367,0,U,53833,999,11420,.48363E-4,.482E-5,0
STARLINK-4737,2022-114S,2024-10-04T23:03:08.104608,15.08856632,.0001019,53.2147,121.4307,109.5945,250.5157,0,U,53834,999,11368,-.24081E-3,-.412E-4,0
STARLINK-4783,2022-114T,2024-10-04T20:08:16.577664,15.08840903,.0001376,53.2145,122.0961,97.2120,262.9028,0,U,53835,999,11420,.66848E-4,.776E-5,0
STARLINK-4778,2022-114U,2024-10-05T06:34:58.694016,15.08843259,.0001482,53.2172,110.5525,103.4842,256.6315,0,U,53836,999,11386,.68687E-4,.805E-5,0
STARLINK-4776,2022-114V,2024-10-04T19:57:40.151808,15.08837407,.000134,53.2136,122.0519,84.8311,275.2834,0,U,53837,999,11420,.14952E-3,.2092E-4,0
STARLINK-4773,2022-114W,2024-10-05T06:29:39.093504,15.08854859,.00016,53.2171,110.5352,101.3742,258.7430,0,U,53838,999,11386,.28568E-3,.4263E-4,0
STARLINK-4784,2022-114X,2024-10-05T06:40:16.760064,15.08842172,.000141,53.2158,110.5838,95.8158,264.2995,0,U,53839,999,11386,.99675E-4,.1299E-4,0
STARLINK-4766,2022-114Y,2024-10-05T06:15:09.267552,15.08833220,.0001364,53.2163,110.4781,90.2278,269.8870,0,U,53840,999,11386,.60017E-4,.667E-5,0
STARLINK-4750,2022-114Z,2024-10-04T19:16:40.098432,15.08848770,.0001451,53.2158,112.5970,90.7465,269.3693,0,U,53841,999,11433,-.10875E-3,-.2019E-4,0
STARLINK-4754,2022-114AA,2024-10-04T20:30:49.750272,15.08843904,.000124,53.2161,112.2113,95.8407,264.2727,0,U,53842,999,11434,.46959E-4,.46E-5,0
STARLINK-4769,2022-114AB,2024-10-05T06:19:03.498816,15.08842241,.0001341,53.2156,110.4914,84.3000,275.8145,0,U,53843,999,11386,.79945E-4,.985E-5,0
STARLINK-4745,2022-114AC,2024-10-05T12:14:04.528896,15.08840183,.0001399,53.2168,109.1910,93.7359,266.3793,0,U,53844,999,11390,.20624E-3,.2996E-4,0
STARLINK-4753,2022-114AD,2024-10-04T22:11:31.545888,15.08842273,.0001578,53.2171,111.9527,90.3900,269.7273,0,U,53845,999,11381,.90223E-4,.1148E-4,0
STARLINK-4746,2022-114AE,2024-10-04T23:20:22.306560,15.08838952,.0001034,53.2157,111.5227,87.5683,272.5428,0,U,53846,999,11382,.12726E-3,.1738E-4,0
STARLINK-4777,2022-114AF,2024-10-04T20:25:31.544256,15.08837778,.0001772,53.2166,112.1849,86.6233,273.4962,0,U,53847,999,11434,.80627E-4,.995E-5,0
STARLINK-4780,2022-114AG,2024-10-05T05:31:17.974560,15.08845121,.0001206,53.2163,110.2874,91.8693,268.2437,0,U,53848,999,11386,.13722E-3,.1897E-4,0
STARLINK-4770,2022-114AH,2024-10-05T05:47:13.609536,15.08841297,.0001474,53.2160,110.3571,101.9227,258.1931,0,U,53849,999,11386,.12985E-3,.1779E-4,0
STARLINK-4767,2022-114AJ,2024-10-04T19:43:04.391040,15.08839624,.0001573,53.2161,111.9982,104.9000,255.2167,0,U,53850,999,11434,.40028E-4,.349E-5,0
STARLINK-4755,2022-114AK,2024-10-05T11:58:08.746176,15.08847370,.0001342,53.2155,109.1235,92.5573,267.5573,0,U,53851,999,11390,.13047E-3,.179E-4,0
STARLINK-4797,2022-114AL,2024-10-05T12:17:23.465760,15.08840614,.0001508,53.2166,104.2187,87.2218,272.8947,0,U,53852,999,11397,.16894E-3,.2402E-4,0
STARLINK-4794,2022-114AM,2024-10-04T19:53:41.111520,15.08849878,.0001285,53.2169,112.0473,91.0332,269.0808,0,U,53853,999,11434,-.13732E-3,-.2473E-4,0
STARLINK-4800,2022-114AN,2024-10-05T05:00:55.451232,15.08837488,.0001207,53.2168,100.8834,99.3311,260.7818,0,U,53854,999,11399,.10351E-3,.136E-4,0
STARLINK-4703,2022-114AP,2024-10-04T20:00:22.442976,15.08839532,.000115,53.2149,112.0744,88.0123,272.1001,0,U,53855,999,11434,.1316E-3,.1807E-4,0
STARLINK-4795,2022-114AQ,2024-10-04T22:18:09.433440,15.08840086,.0001606,53.2177,101.9779,97.6521,262.4654,0,U,53856,999,11395,.79554E-4,.978E-5,0
STARLINK-4809,2022-114AR,2024-10-04T19:37:46.099488,15.08834346,.0001413,53.2173,111.9802,100.9667,259.1484,0,U,53857,999,11434,.11507E-3,.1544E-4,0
STARLINK-4798,2022-114AS,2024-10-05T04:55:36.935040,15.08840372,.0001318,53.2157,100.8581,79.4261,280.6879,0,U,53858,999,11399,.76846E-4,.935E-5,0
STARLINK-4790,2022-114AT,2024-10-05T05:18:42.003072,15.08846228,.0001303,53.2161,105.2484,107.4128,252.7007,0,U,53859,999,11393,.18168E-3,.2605E-4,0
STARLINK-4799,2022-114AU,2024-10-04T19:12:41.573952,15.08837864,.0001381,53.2162,102.5969,96.3653,263.7497,0,U,53860,999,11423,.81787E-5,-.158E-5,0
